start=new Date('2021-09-18T00:00:00.000Z').valueOf();
sats=[{"LAUNCH_DATE":"2021-03-11","OBJECT_ID":"2021-018AR","FILE":"3118116","BSTAR":"0.00009470800000","MEAN_MOTION_DOT":"0.00001129","INCLINATION":"53.0571","RCS_SIZE":"LARGE","PERIOD":"95.592","APOAPSIS":"548.259","OBJECT_TYPE":"PAYLOAD","TLE_LINE1":"1 47826U 21018AR  21260.74602716  .00001129  00000-0  94708-4 0  9998","NORAD_CAT_ID":"47826","DECAY_DATE":null,"COUNTRY_CODE":"US","MEAN_MOTION":"15.06401035","CLASSIFICATION_TYPE":"U","CENTER_NAME":"EARTH","GP_ID":"184912697","SITE":"AFETR","REF_FRAME":"TEME","TLE_LINE2":"2 47826  53.0571  26.6739 0001514  88.7177 271.3986 15.06401035 30321","TIME_SYSTEM":"UTC","RA_OF_ASC_NODE":"26.6739","EPOCH":"2021-09-17T17:54:16.746624","OBJECT_NAME":"STARLINK-2411","ARG_OF_PERICENTER":"88.7177","SEMIMAJOR_AXIS":"6925.345","EPHEMERIS_TYPE":"0","MEAN_MOTION_DDOT":"0.0000000000000","ECCENTRICITY":"0.00015140","MEAN_ANOMALY":"271.3986","ELEMENT_SET_NO":"999","PERIAPSIS":"546.162","MEAN_ELEMENT_THEORY":"SGP4","REV_AT_EPOCH":"3032"},{"NORAD_CAT_ID":"47827","DECAY_DATE":null,"OBJECT_TYPE":"PAYLOAD","TLE_LINE1":"1 47827U 21018AS  21260.70547020 -.00000558  00000-0 -18591-4 0  9994","COUNTRY_CODE":"US","CLASSIFICATION_TYPE":"U","MEAN_MOTION":"15.06392720","FILE":"3118116","BSTAR":"-0.00001859100000","OBJECT_ID":"2021-018AS","LAUNCH_DATE":"2021-03-11","MEAN_MOTION_DOT":"-0.00000558","RCS_SIZE":"LARGE","PERIOD":"95.593","INCLINATION":"53.0580","APOAPSIS":"548.067","SEMIMAJOR_AXIS":"6925.371","MEAN_MOTION_DDOT":"0.0000000000000","EPHEMERIS_TYPE":"0","ELEMENT_SET_NO":"999","MEAN_ANOMALY":"256.8905","ECCENTRICITY":"0.00012000","REV_AT_EPOCH":"3051","PERIAPSIS":"546.405","MEAN_ELEMENT_THEORY":"SGP4","CENTER_NAME":"EARTH","GP_ID":"184912948","REF_FRAME":"TEME","TLE_LINE2":"2 47827  53.0580  16.8514 0001200 103.2218 256.8905 15.06392720 30515","SITE":"AFETR","EPOCH":"2021-09-17T16:55:52.625280","OBJECT_NAME":"STARLINK-2413","RA_OF_ASC_NODE":"16.8514","TIME_SYSTEM":"UTC","ARG_OF_PERICENTER":"103.2218"},{"TLE_LINE2":"2 47828  53.0570  36.4434 0001733  94.5452 265.5735 15.06400862 30196","REF_FRAME":"TEME","SITE":"AFETR","GP_ID":"184911696","CENTER_NAME":"EARTH","ARG_OF_PERICENTER":"94.5452","OBJECT_NAME":"STARLINK-2415","EPOCH":"2021-09-17T19:07:15.786336","RA_OF_ASC_NODE":"36.4434","TIME_SYSTEM":"UTC","EPHEMERIS_TYPE":"0","MEAN_MOTION_DDOT":"0.0000000000000","SEMIMAJOR_AXIS":"6925.346","REV_AT_EPOCH":"3019","MEAN_ELEMENT_THEORY":"SGP4","PERIAPSIS":"546.011","ELEMENT_SET_NO":"999","MEAN_ANOMALY":"265.5735","ECCENTRICITY":"0.00017330","MEAN_MOTION_DOT":"0.00000924","FILE":"3118116","OBJECT_ID":"2021-018AT","BSTAR":"0.00008090600000","LAUNCH_DATE":"2021-03-11","APOAPSIS":"548.411","PERIOD":"95.592","RCS_SIZE":"LARGE","INCLINATION":"53.0570","DECAY_DATE":null,"NORAD_CAT_ID":"47828","TLE_LINE1":"1 47828U 21018AT  21260.79671049  .00000924  00000-0  80906-4 0  9997","OBJECT_TYPE":"PAYLOAD","CLASSIFICATION_TYPE":"U","MEAN_MOTION":"15.06400862","COUNTRY_CODE":"US"},{"OBJECT_TYPE":"PAYLOAD","TLE_LINE1":"1 47829U 21018AU  21260.68244980  .00000786  00000-0  71649-4 0  9996","NORAD_CAT_ID":"47829","DECAY_DATE":null,"COUNTRY_CODE":"US","MEAN_MOTION":"15.06391933","CLASSIFICATION_TYPE":"U","LAUNCH_DATE":"2021-03-11","FILE":"3118116","BSTAR":"0.00007164900000","OBJECT_ID":"2021-018AU","MEAN_MOTION_DOT":"0.00000786","INCLINATION":"53.0564","RCS_SIZE":"LARGE","PERIOD":"95.593","APOAPSIS":"548.218","SEMIMAJOR_AXIS":"6925.373","MEAN_MOTION_DDOT":"0.0000000000000","EPHEMERIS_TYPE":"0","ECCENTRICITY":"0.00014140","MEAN_ANOMALY":"260.8199","ELEMENT_SET_NO":"999","PERIAPSIS":"546.259","MEAN_ELEMENT_THEORY":"SGP4","REV_AT_EPOCH":"3016","CENTER_NAME":"EARTH","GP_ID":"184911946","SITE":"AFETR","REF_FRAME":"TEME","TLE_LINE2":"2 47829  53.0564  36.9604 0001414  99.2950 260.8199 15.06391933 30162","TIME_SYSTEM":"UTC","RA_OF_ASC_NODE":"36.9604","EPOCH":"2021-09-17T16:22:43.662720","OBJECT_NAME":"STARLINK-2416","ARG_OF_PERICENTER":"99.2950"},{"COUNTRY_CODE":"US","MEAN_MOTION":"15.06395235","CLASSIFICATION_TYPE":"U","TLE_LINE1":"1 47830U 21018AV  21260.67875997 -.00000894  00000-0 -41131-4 0  9990","OBJECT_TYPE":"PAYLOAD","DECAY_DATE":null,"NORAD_CAT_ID":"47830","INCLINATION":"53.0583","PERIOD":"95.592","RCS_SIZE":"MEDIUM","APOAPSIS":"548.282","LAUNCH_DATE":"2021-03-11","OBJECT_ID":"2021-018AV","FILE":"3118116","BSTAR":"-0.00004113100000","MEAN_MOTION_DOT":"-0.00000894","MEAN_ANOMALY":"264.7019","ECCENTRICITY":"0.00015210","ELEMENT_SET_NO":"999","MEAN_ELEMENT_THEORY":"SGP4","PERIAPSIS":"546.175","REV_AT_EPOCH":"3016","SEMIMAJOR_AXIS":"6925.363","MEAN_MOTION_DDOT":"0.0000000000000","EPHEMERIS_TYPE":"0","RA_OF_ASC_NODE":"36.9721","TIME_SYSTEM":"UTC","OBJECT_NAME":"STARLINK-2419","EPOCH":"2021-09-17T16:17:24.861408","ARG_OF_PERICENTER":"95.4144","GP_ID":"184913197","CENTER_NAME":"EARTH","SITE":"AFETR","TLE_LINE2":"2 47830  53.0583  36.9721 0001521  95.4144 264.7019 15.06395235 30160","REF_FRAME":"TEME"},{"COUNTRY_CODE":"US","MEAN_MOTION":"15.06387943","CLASSIFICATION_TYPE":"U","OBJECT_TYPE":"PAYLOAD","TLE_LINE1":"1 47831U 21018AW  21260.68565265  .00000946  00000-0  82404-4 0  9990","NORAD_CAT_ID":"47831","DECAY_DATE":null,"INCLINATION":"53.0535","PERIOD":"95.593","RCS_SIZE":"LARGE","APOAPSIS":"548.076","LAUNCH_DATE":"2021-03-11","FILE":"3118116","OBJECT_ID":"2021-018AW","BSTAR":"0.00008240400000","MEAN_MOTION_DOT":"0.00000946","MEAN_ANOMALY":"241.1016","ECCENTRICITY":"0.00011920","ELEMENT_SET_NO":"999","PERIAPSIS":"546.425","MEAN_ELEMENT_THEORY":"SGP4","REV_AT_EPOCH":"3057","SEMIMAJOR_AXIS":"6925.386","MEAN_MOTION_DDOT":"0.0000000000000","EPHEMERIS_TYPE":"0","RA_OF_ASC_NODE":"11.9449","TIME_SYSTEM":"UTC","EPOCH":"2021-09-17T16:27:20.388960","OBJECT_NAME":"STARLINK-2420","ARG_OF_PERICENTER":"119.0092","CENTER_NAME":"EARTH","GP_ID":"184913448","SITE":"AFETR","REF_FRAME":"TEME","TLE_LINE2":"2 47831  53.0535  11.9449 0001192 119.0092 241.1016 15.06387943 30575"},{"CLASSIFICATION_TYPE":"U","MEAN_MOTION":"15.06397511","COUNTRY_CODE":"US","DECAY_DATE":null,"NORAD_CAT_ID":"47832","TLE_LINE1":"1 47832U 21018AX  21260.76814157  .00000872  00000-0  77453-4 0  9993","OBJECT_TYPE":"PAYLOAD","APOAPSIS":"548.341","PERIOD":"95.592","RCS_SIZE":"LARGE","INCLINATION":"53.0571","MEAN_MOTION_DOT":"0.00000872","OBJECT_ID":"2021-018AX","FILE":"3118116","BSTAR":"0.00007745300000","LAUNCH_DATE":"2021-03-11","REV_AT_EPOCH":"3032","MEAN_ELEMENT_THEORY":"SGP4","PERIAPSIS":"546.101","ELEMENT_SET_NO":"999","ECCENTRICITY":"0.00016170","MEAN_ANOMALY":"265.3240","MEAN_MOTION_DDOT":"0.0000000000000","EPHEMERIS_TYPE":"0","SEMIMAJOR_AXIS":"6925.356","ARG_OF_PERICENTER":"94.7933","OBJECT_NAME":"STARLINK-2422","EPOCH":"2021-09-17T18:26:07.431648","RA_OF_ASC_NODE":"26.5725","TIME_SYSTEM":"UTC","TLE_LINE2":"2 47832  53.0571  26.5725 0001617  94.7933 265.3240 15.06397511 30322","REF_FRAME":"TEME","SITE":"AFETR","GP_ID":"184912196","CENTER_NAME":"EARTH"},{"REV_AT_EPOCH":"3034","MEAN_ELEMENT_THEORY":"SGP4","PERIAPSIS":"546.216","ELEMENT_SET_NO":"999","MEAN_ANOMALY":"267.5765","ECCENTRICITY":"0.00014330","MEAN_MOTION_DDOT":"0.0000000000000","EPHEMERIS_TYPE":"0","SEMIMAJOR_AXIS":"6925.343","ARG_OF_PERICENTER":"92.5388","OBJECT_NAME":"STARLINK-2423","EPOCH":"2021-09-17T12:41:06.773568","RA_OF_ASC_NODE":"27.6474","TIME_SYSTEM":"UTC","TLE_LINE2":"2 47833  53.0570  27.6474 0001433  92.5388 267.5765 15.06401686 30348","REF_FRAME":"TEME","SITE":"AFETR","GP_ID":"184912446","CENTER_NAME":"EARTH","CLASSIFICATION_TYPE":"U","MEAN_MOTION":"15.06401686","COUNTRY_CODE":"US","DECAY_DATE":null,"NORAD_CAT_ID":"47833","TLE_LINE1":"1 47833U 21018AY  21260.52855062  .00001206  00000-0  99829-4 0  9991","OBJECT_TYPE":"PAYLOAD","APOAPSIS":"548.201","PERIOD":"95.592","RCS_SIZE":"LARGE","INCLINATION":"53.0570","MEAN_MOTION_DOT":"0.00001206","OBJECT_ID":"2021-018AY","FILE":"3118116","BSTAR":"0.00009982900000","LAUNCH_DATE":"2021-03-11"},{"TLE_LINE2":"2 47834  53.0569  26.7025 0001340 100.9112 259.2028 15.06400767 30377","REF_FRAME":"TEME","SITE":"AFETR","GP_ID":"184912698","CENTER_NAME":"EARTH","ARG_OF_PERICENTER":"100.9112","OBJECT_NAME":"STARLINK-2424","EPOCH":"2021-09-17T17:43:39.888768","RA_OF_ASC_NODE":"26.7025","TIME_SYSTEM":"UTC","EPHEMERIS_TYPE":"0","MEAN_MOTION_DDOT":"0.0000000000000","SEMIMAJOR_AXIS":"6925.346","REV_AT_EPOCH":"3037","MEAN_ELEMENT_THEORY":"SGP4","PERIAPSIS":"546.283","ELEMENT_SET_NO":"999","MEAN_ANOMALY":"259.2028","ECCENTRICITY":"0.00013400","MEAN_MOTION_DOT":"0.00001537","BSTAR":"0.00012205000000","FILE":"3118116","OBJECT_ID":"2021-018AZ","LAUNCH_DATE":"2021-03-11","APOAPSIS":"548.139","PERIOD":"95.592","RCS_SIZE":"LARGE","INCLINATION":"53.0569","DECAY_DATE":null,"NORAD_CAT_ID":"47834","TLE_LINE1":"1 47834U 21018AZ  21260.73865612  .00001537  00000-0  12205-3 0  9996","OBJECT_TYPE":"PAYLOAD","CLASSIFICATION_TYPE":"U","MEAN_MOTION":"15.06400767","COUNTRY_CODE":"US"},{"ECCENTRICITY":"0.00013620","MEAN_ANOMALY":"263.8634","ELEMENT_SET_NO":"999","PERIAPSIS":"546.309","MEAN_ELEMENT_THEORY":"SGP4","REV_AT_EPOCH":"2986","SEMIMAJOR_AXIS":"6925.387","MEAN_MOTION_DDOT":"0.0000000000000","EPHEMERIS_TYPE":"0","RA_OF_ASC_NODE":"33.1556","TIME_SYSTEM":"UTC","EPOCH":"2021-09-17T10:07:50.209824","OBJECT_NAME":"STARLINK-2425","ARG_OF_PERICENTER":"96.2510","CENTER_NAME":"EARTH","GP_ID":"184882541","SITE":"AFETR","REF_FRAME":"TEME","TLE_LINE2":"2 47835  53.0564  33.1556 0001362  96.2510 263.8634 15.06387379 29866","COUNTRY_CODE":"US","MEAN_MOTION":"15.06387379","CLASSIFICATION_TYPE":"U","OBJECT_TYPE":"PAYLOAD","TLE_LINE1":"1 47835U 21018BA  21260.42210891  .00000812  00000-0  73425-4 0  9993","NORAD_CAT_ID":"47835","DECAY_DATE":null,"INCLINATION":"53.0564","RCS_SIZE":"LARGE","PERIOD":"95.593","APOAPSIS":"548.195","LAUNCH_DATE":"2021-03-11","BSTAR":"0.00007342500000","FILE":"3117725","OBJECT_ID":"2021-018BA","MEAN_MOTION_DOT":"0.00000812"}];
